OPTICUBE 04             
1 41851U 16067D   24176.41082588  .00003685  00000+0  27925-3 0  9994
2 41851  98.0763 341.6490 0018298  33.6453 326.5928 15.02812735416328
AEROCUBE 8D             
1 41852U 16067E   24176.45535260  .00005835  00000+0  38436-3 0  9997
2 41852  98.1080 346.0964 0006275  87.6302 272.5642 15.07924444416498
AEROCUBE 8C             
1 41853U 16067F   24176.53547523  .00006078  00000+0  40053-3 0  9990
2 41853  98.0895 344.7413 0007989  24.0608 336.0991 15.07880385416491
PROMETHEUS 2-1          
1 41854U 16067G   24176.54822786  .00013428  00000+0  67644-3 0  9991
2 41854  98.0999 352.2280 0012568  37.3501 322.8602 15.17252307416851
PROMETHEUS 2-3          
1 41855U 16067H   24176.54465619  .00013458  00000+0  67884-3 0  9999
2 41855  98.0929 351.7053 0010901  47.8227 312.3928 15.17221370416858
DIDO-2                  
1 42000U 17008BE  24176.40454279  .00373740  58077-4  90807-3 0  9999
2 42000  97.1277 238.7189 0004536 198.7216 161.3895 15.96262240409958
AALTO-1                 
1 42775U 17036L   24176.61576324  .00096880  00000+0  80575-3 0  9994
2 42775  97.1004 206.3520 0007866 157.3563 202.8048 15.69806296390270
URSA MAIOR              
1 42776U 17036M   24176.58212020  .00854503  39745-3  10618-2 0  9997
2 42776  97.0919 211.4036 0010229 205.4618 154.6162 16.07757941390598
CORVUS BC2              
1 42846U 17042X   24176.47135986  .00003790  00000+0  32706-3 0  9990
2 42846  97.3748   1.1676 0009421  44.9546 315.2438 14.97790196378538
CORVUS BC1              
1 42847U 17042Y   24176.56526609  .00002725  00000+0  23566-3 0  9998
2 42847  97.3725   1.6610 0008645  38.4299 321.7539 14.97937338378565
MIRATA                  
1 43015U 17073C   24176.57199013  .00014961  00000+0  70347-3 0  9990
2 43015  97.5937  61.2316 0167477 235.3458 123.1887 15.08027243357441
MAKERSAT 0              
1 43016U 17073D   24176.16903927  .00007440  00000+0  42525-3 0  9994
2 43016  97.5802  54.9625 0193233 258.8934  99.0508 14.98493447356961
GOMX-4B                 
1 43196U 18015E   24176.45912101  .00056017  00000+0  57708-3 0  9999
2 43196  97.6059 350.6352 0006768 272.5318  87.5166 15.64645894356661
GOMX-4A                 
1 43197U 18015F   24176.57949026  .00110665  00000+0  64371-3 0  9993
2 43197  97.5947 356.0335 0006500 250.8082 109.2480 15.78133922357042
CICERO 10               
1 43690U 18088A   24176.51331891  .00332824  38138-4  12286-2 0  9998
2 43690  85.0026 173.9169 0008885 181.1695 178.9563 15.88075148313374
SIRION PATHFINDER-2     
1 43759U 18099B   24176.41771265  .00004544  00000+0  34303-3 0  9990
2 43759  97.5294 232.3583 0008993 257.3754 102.6466 15.02866522303596
CORVUS BC4              
1 43767U 18099K   24176.58744843  .00003292  00000+0  25441-3 0  9991
2 43767  97.5093 229.7223 0009285 331.2558  28.8154 15.02161901303505
MOVE-II                 
1 43780U 18099Y   24176.61609717  .00016658  00000+0  86664-3 0  9994
2 43780  97.5207 239.5358 0004869 313.3988  46.6839 15.16107109304050
SPACEBEE-7              
1 43816U 18099BL  24176.22020848  .00010930  00000+0  64242-3 0  9998
2 43816  97.5476 239.8346 0008555 257.5395 102.4878 15.11828413303477
SPACEBEE-6              
1 43818U 18099BN  24176.43997701  .00028342  00000+0  11733-2 0  9996
2 43818  97.5399 245.5235 0007696 250.0345 110.0064 15.23870570304019
SHIELDS 1               
1 43850U 18104B   24176.28061096  .00013381  00000+0  35573-3 0  9997
2 43850  85.0237 278.2934 0011690  53.9069 306.3262 15.38032758307252
SONATE                  
1 44400U 19038Q   24176.57272289  .00018305  00000+0  54725-3 0  9997
2 44400  97.7115 170.9983 0018143  82.9576 277.3729 15.34469552275213
LUCKY-7                 
1 44406U 19038W   24176.55723965  .00035703  00000+0  75885-3 0  9994
2 44406  97.7008 175.1898 0014880  71.5418 288.7445 15.44802485275505
DUCHIFAT-3              
1 44854U 19089C   24175.90662274  .00014283  00000+0  71746-3 0  9992
2 44854  36.9582   8.2134 0004425 148.1714 211.9301 15.16648674249223
M2 PATHFINDER           
1 45727U 20037E   24176.53756377  .00002385  00000+0  21090-3 0  9992
2 45727  97.7766 352.9327 0012330  98.5269 261.7350 14.97218636217043
NETSAT-4                
1 46504U 20068U   24176.46688405  .00008605  00000+0  45882-3 0  9994
2 46504  97.8067 133.8041 0009158 350.7486   9.3575 15.15398895205273
NETSAT-3                
1 46505U 20068V   24176.45412030  .00008267  00000+0  44822-3 0  9990
2 46505  97.8038 133.2890 0008791   0.0148   0.1082 15.14819188205263
NETSAT-1                
1 46506U 20068W   24176.57826418  .00006508  00000+0  37102-3 0  9992
2 46506  97.8060 132.8736 0008090  11.2966 348.8444 15.13119484205240
NETSAT-2                
1 46507U 20068X   24176.41841842  .00009495  00000+0  50736-3 0  9990
2 46507  97.8051 133.3834 0007689  19.5726 340.5799 15.15302287205210
WILDTRACKCUBE-SIMBA     
1 47941U 21022K   24176.60413348  .00012223  00000+0  54134-3 0  9990
2 47941  97.4599  73.3064 0017437 115.8894 244.4142 15.21648922179593
BEESAT-6                
1 47957U 21022AB  24175.72839187  .00386609  00000+0  22503-2 0  9998
2 47957  97.4275  84.5860 0011149 110.8869 249.3591 15.77332110180099
SMOG-1                  
1 47964U 21022AJ  24176.30554028  .00233319  00000+0  18191-2 0  9996
2 47964  97.4590  88.2440 0010563  99.0631 261.1827 15.70929446179354
BCCSAT-1                
1 48041U 21022AK  24176.54945856  .00073402  00000+0  12861-2 0  9995
2 48041  97.4614  83.9470 0010225  85.0173 275.2245 15.50277965179073
BEESAT-7                
1 48084U 21022AN  24176.17605762  .00150119  00000+0  15567-2 0  9997
2 48084  97.4559  84.8291 0011476  98.3243 261.9318 15.64105954178854
BEESAT-8                
1 48085U 21022AP  24176.53165207  .00024212  00000+0  75643-3 0  9999
2 48085  97.4766  78.6876 0014838  99.3071 260.9849 15.33063667179006
LEDSAT                  
1 49069U 21073D   24176.14176785  .00014363  00000+0  57475-3 0  9997
2 49069  97.4371 247.2270 0017932 256.3484 103.5757 15.25035594157515
SITRO-AIS 5 (KATYS)     
1 57176U 23091L   24176.58699294  .00006520  00000+0  41896-3 0  9996
2 57176  97.6111 228.7061 0019288  97.7081 262.6338 15.08615130 54615
SITRO-AIS 6 (CHIRKIN)   
1 57192U 23091AC  24176.57186377  .00007425  00000+0  47585-3 0  9992
2 57192  97.6108 228.7163 0018879  97.6391 262.6982 15.08672922 54617
SITRO-AIS 8 (ANOKHIN)   
1 57193U 23091AD  24176.60449709  .00006936  00000+0  44084-3 0  9995
2 57193  97.6114 228.8187 0018972  98.4418 261.8962 15.09003977 54624
SITRO-AIS 7 (FARTUSHNIY)
1 57194U 23091AE  24176.57710027  .00007189  00000+0  46146-3 0  9998
2 57194  97.6105 228.7029 0018805  98.1650 262.1712 15.08628638 54611
SITRO-AIS 10 (BURDAEV)  
1 57199U 23091AK  24176.49972403  .00008786  00000+0  53121-3 0  9997
2 57199  97.6126 229.6376 0013714  88.6566 271.6235 15.10818503 54663
SITRO-AIS 9 (SHCHUKIN)  
1 57201U 23091AM  24176.56434708  .00008719  00000+0  52740-3 0  9992
2 57201  97.6122 229.6820 0013676  88.3864 271.8932 15.10805929 54677
SITRO-AIS 12 (SMIRENNIY)
1 57204U 23091AQ  24176.52590912  .00007598  00000+0  45776-3 0  9996
2 57204  97.6130 229.7776 0013685  83.3981 276.8805 15.10996107 54678
SITRO-AIS 11 (SHEFFER)  
1 57208U 23091AU  24176.57740074  .00008557  00000+0  51384-3 0  9999
2 57208  97.6125 229.8523 0013376  83.5271 276.7481 15.11078530 54680
SITRO-AIS 29            
1 59052U 24039B   24176.55970975  .00017885  00000+0  65093-3 0  9990
2 59052  97.3925 138.5027 0017741 181.0738 179.0466 15.28134362 17727
SITRO-AIS 30            
1 59053U 24039C   24176.55951170  .00017187  00000+0  62657-3 0  9995
2 59053  97.3922 138.4992 0017795 182.0180 178.0991 15.28087759 17714
SITRO-AIS 31            
1 59054U 24039D   24176.55225197  .00017470  00000+0  63437-3 0  9991
2 59054  97.3923 138.5093 0017710 181.8289 178.2889 15.28216929 17736
SITRO-AIS 33            
1 59055U 24039E   24176.60910952  .00016142  00000+0  58411-3 0  9999
2 59055  97.3925 138.5903 0017428 182.1222 177.9947 15.28352041 17733
SITRO-AIS 35            
1 59056U 24039F   24176.60551297  .00016598  00000+0  60014-3 0  9990
2 59056  97.3924 138.5928 0017203 182.2878 177.8286 15.28375605 17735
SITRO-AIS 32            
1 59057U 24039G   24176.54666656  .00017842  00000+0  64726-3 0  9997
2 59057  97.3926 138.5203 0017252 182.7063 177.4086 15.28250378 17721
SITRO-AIS 34            
1 59058U 24039H   24176.54329328  .00017474  00000+0  63278-3 0  9992
2 59058  97.3927 138.5268 0017392 182.6692 177.4458 15.28312080 17728
SITRO-AIS 36            
1 59059U 24039J   24176.60099949  .00017481  00000+0  63062-3 0  9992
2 59059  97.3923 138.5991 0016955 182.3720 177.7442 15.28443666 17733
SITRO-AIS 49            
1 59060U 24039K   24176.60107993  .00018169  00000+0  65586-3 0  9990
2 59060  97.3923 138.5990 0017063 181.9712 178.1463 15.28412664 17733
SITRO-AIS 50            
1 59061U 24039L   24176.59213917  .00016143  00000+0  58023-3 0  9991
2 59061  97.3923 138.6099 0016916 182.0425 178.0749 15.28581117 17730
SITRO-AIS 51            
1 59062U 24039M   24176.59177831  .00017285  00000+0  62139-3 0  9997
2 59062  97.3924 138.6110 0016936 181.9102 178.2076 15.28560507 17733
SITRO-AIS 52            
1 59063U 24039N   24176.58557493  .00018619  00000+0  66726-3 0  9991
2 59063  97.3925 138.6201 0016775 181.7882 178.3300 15.28649466 17733
SITRO-AIS 25            
1 59066U 24039R   24176.56487952  .00005366  00000+0  51554-3 0  9992
2 59066  95.4035 102.3587 0169842 318.3051  40.5323 14.82974631 17203
SITRO-AIS 26            
1 59067U 24039S   24176.56454669  .00005111  00000+0  49169-3 0  9999
2 59067  95.4034 102.3583 0169745 318.3362  40.5028 14.82946190 17207
SITRO-AIS 27            
1 59068U 24039T   24176.55458734  .00005755  00000+0  55140-3 0  9996
2 59068  95.4036 102.3705 0169371 318.1999  40.6384 14.83111559 17205
